full_name,a,e,i,om,w,q,ad,per_y,data_arc,condition_code,n_obs_used,n_del_obs_used,n_dop_obs_used,H,diameter,extent,albedo,rot_per,GM,BV,UB,IR,spec_B,spec_T
"   548 Kressida (1904 PC)",2.282328318290994,.1848265273227054,3.872915484810898,108.4629355833001,320.2576949238434,1.860493501010999,2.704163135570989,3.44806449480223,39756,0,1285,,,11.26,,,,11.9404,,.882,.489,,,S
"   549 Jessonda (1904 PK)",2.683831862745253,.2577645619773333,3.961946872064005,291.4719721991448,158.2741567564605,1.992035118223913,3.375628607266594,4.39684503269915,39810,0,1341,,,11.01,18.81,,0.1971,2.971,,.827,.361,,,S
"   550 Senta (1904 PL)",2.589950723744063,.2218421628395393,10.11102388823165,270.7419738222682,45.19000700124651,2.01539045354085,3.164510993947276,4.16817029496416,41350,0,1222,,,9.37,37.75,,0.2215,20.555,,.850,.390,,,S
"   551 Ortrud (1904 PM)",2.966048506680197,.1237035147824347,.3975479788998134,6.012437353464913,68.03024950623517,2.599137881388665,3.332959131971729,5.10829037238403,39926,0,1936,,,9.57,78.46,,0.0426,13.05,,.673,.289,,C,XC
"   553 Kundry (1904 PP)",2.230681334097456,.1096279102335269,5.390078803381605,72.41422428789166,354.5889253131712,1.986136401043417,2.475226267151497,3.33168936143789,39633,0,1087,,,12.1,,,,12.605,,,,,S,
"   554 Peraga (1905 PS)",2.374604253283362,.1529125246590243,2.936125042643302,295.4625898246377,127.547432744743,2.011497521847746,2.737710984718978,3.659275132315,41384,0,1436,,,9.0,95.87,,0.0496,13.7128,,.676,.342,,Ch,FC
"   555 Norma (1905 PT)",3.188350081944288,.1499726922461726,2.645920336587045,130.4383663070778,356.2267230657507,2.710184636331798,3.666515527556778,5.69321000381622,39629,0,1506,,,10.8,40.11,,0.0632,19.55,,,,,B,
"   556 Phyllis (1905 PW)",2.464145500985904,.1031420000296343,5.241014935710514,286.137228396584,177.2696334944832,2.209988605650193,2.718302396321616,3.86818934631995,38902,0,1028,,,9.56,37.81,,0.1853,4.293,,.849,.410,,S,S
"   558 Carmen (1905 QB)",2.90732786603678,.04386378793107035,8.375339194097748,143.7276863034294,312.1568025353563,2.779801453074851,3.034854278998708,4.95734585064467,39838,0,1582,,,9.09,59.31,,0.1161,11.387,,.733,.278,,,M
"   559 Nanon (1905 QD)",2.711106211709476,.06697115486610093,9.305679046934713,112.1479283709159,129.2578650891178,2.529540297746632,2.892672125672319,4.46403920765494,39649,0,1342,,,9.4,79.82,,0.0500,10.059,,.733,.379,,Xk,C
"   560 Delila (1905 QF)",2.750959039557535,.1623613990008394,8.471205370937326,105.3561323944154,4.000602841291363,2.304309481300968,3.197608597814102,4.5628310501764,39797,0,1187,,,10.9,37.24,,0.0733,,,,,,B,
"   561 Ingwelde (1905 QG)",3.176739408919993,.1160471877864467,1.54343542168423,159.4977692973404,315.4701917421602,2.808087734184449,3.545391083655536,5.66213980336881,39551,0,1279,,,11.21,24.50,,0.0966,12.012,,.745,,,,XCU
"   562 Salome (1905 QH)",3.021540155721909,.09895546877371934,11.10414772820496,70.66540709769653,263.6131942645649,2.722542233193831,3.320538078249988,5.25231491967379,39790,0,1281,,,9.95,30.67,,0.1967,6.351,,.794,.415,,,S
"   563 Suleika (1905 QK)",2.714805541199484,.233196084247279,10.23166252539768,85.34478996083433,336.6818588030865,2.081723519498949,3.347887562900018,4.47317915792337,38645,0,1019,,,8.50,53.29,,0.2477,5.69,,.887,.471,,Sl,S
"   564 Dudu (1905 QM)",2.746127240741456,.2766525625995558,17.9892865577163,70.77158837587204,215.0832146874767,1.986404102365884,3.505850379117026,4.5508150598689,36486,0,1124,,,10.43,49.57,,0.0484,8.882,,.731,.312,,Xc,CDX:
"   565 Marbachia (1905 QN)",2.442656146651419,.1301538929800112,10.99670325483345,225.8618973258585,291.8349708781573,2.124734939953183,2.760577353349654,3.81769918775832,39703,0,1414,,,10.88,27.57,,0.1033,4.587,,.811,.422,,,S
"   566 Stereoskopia (1905 QO)",3.381371978036451,.1125075904503912,4.89891906157676,80.22764526236898,295.7197227249208,3.000941964371096,3.761801991701805,6.21795573713169,39699,0,1335,,,8.0,168.16,,0.0383,12.103,,.712,.291,,,C
"   567 Eleutheria (1905 QP)",3.135687615697957,.09306278349987657,9.26097582459286,58.42859811759423,133.490321402281,2.843871797995015,3.4275034334009,5.55274063613516,39733,0,1244,,,9.16,93.41,,0.0439,7.72,,.652,.309,,,CFB:
"   569 Misa (1905 QT)",2.657221868964806,.1801595449092117,1.29296115391118,301.8078732764855,143.0626966522063,2.178497986329301,3.13594575160031,4.33161580135141,38063,0,1482,,,10.12,72.95,,0.0297,13.52,,.716,.335,,Cg,C
"   570 Kythera (1905 QX)",3.417775674721094,.1214490289582961,1.786823463025074,223.9032939553011,155.2066388699109,3.002690137828932,3.832861211613256,6.31863885784063,39589,0,1599,,,8.81,102.81,,0.0500,8.120,,.775,.374,,T,ST
"   571 Dulcinea (1905 QZ)",2.409939638415227,.2420915164680575,5.225572317623,3.217472072799768,27.56528110808654,1.826513696754803,2.993365580075652,3.74125620134136,39335,0,1425,,,11.59,,,,126.3,,.867,.437,,S,S
"   572 Rebekka (1905 RB)",2.401251057788333,.1568601606538693,10.57103176654991,194.6171618459667,192.2296855258466,2.024590431093381,2.777911684483285,3.72104186323319,39608,0,1320,,,10.94,29.63,,0.0847,5.6497,,.691,.308,,C,XDC
"   574 Reginhild (1905 RD)",2.252603886150208,.2393992049168222,5.683030412624673,336.8173188685331,76.84359458355098,1.713332306813304,2.791875465487111,3.38092429148569,39570,0,992,,,12.30,7.46,,0.3819,14.339,,,,,,S
"   578 Happelia (1905 RZ)",2.750241238586073,.1939563934210693,6.151743920301331,29.41552803786265,261.5574256120886,2.216814366912023,3.283668110260122,4.56104531426233,39329,0,1560,,,9.4,69.29,,0.0769,10.061,,,,,Xc,
"   579 Sidonia (1905 SD)",3.012358713474813,.08087971294237638,11.00760704778229,82.74675853262198,229.1859832706645,2.768720005449504,3.255997421500123,5.2283930928643,38899,0,1118,,,7.85,85.57,,0.1748,16.286,,.818,.418,,K,S
"   581 Tauntonia (1905 SH)",3.211730999726302,.03127506175485617,21.88935719487308,102.6236743071386,28.55669642478587,3.111283914369876,3.312178085082728,5.75594913708892,39219,0,922,,,9.7,63.66,,0.0758,16.54,,,,,Xk,
"   582 Olympia (1906 SO)",2.610372566921364,.2220945765293331,30.03670724615481,155.7204230342228,310.5834655359404,2.030622977087175,3.190122156755552,4.21756658056675,39341,0,1449,,,9.11,43.41,,0.2128,36.21,,.891,.534,,,S
"   583 Klotilde (1905 SP)",3.171574604732626,.162032962798458,8.251370223885798,257.9657384880314,252.7341828254903,2.65767497479145,3.685474234673802,5.64833699327999,39128,0,1256,,,9.01,81.64,,0.0660,9.2116,,.664,.306,,,C
"   584 Semiramis (1906 SY)",2.373983107706667,.2331385026658024,10.72846918514542,282.2363285562196,84.81455549883829,1.820516240622027,2.927449974791308,3.65783944429596,39254,0,988,,,8.71,54.01,,0.1987,5.068,,.916,.521,,Sl,S
"   585 Bilkis (1906 TA)",2.430728070750131,.1285343996331845,7.565495677973678,180.2998201858828,329.1304797530356,2.118295897504734,2.743160243995528,3.78976924309152,39249,0,1452,,,10.40,58.09,,0.0362,8.5751,,.702,.320,,,C
"   586 Thekla (1906 TC)",3.043282936566546,.06014806839078123,1.62529124781116,228.4636939988789,250.3177252611795,2.860235346365444,3.226330526767648,5.30910969527417,39198,0,1708,,,9.21,82.37,,0.0539,13.670,,.660,.372,,Ch,C:
"   588 Achilles (1906 TG)",5.201382140660148,.147900877099106,10.31573842120043,316.586204290422,133.3161536838898,4.432093159928887,5.970671121391409,11.8627764267506,39461,0,1018,,,8.67,135.47,,0.0328,7.306,,.755,.216,,,DU
"   589 Croatia (1906 TM)",3.134740869481458,.03899221423039544,10.81352948557369,177.6077515717509,220.4609900951273,3.012510381941861,3.256971357021055,5.55022604922305,39330,0,1372,,,9.0,87.54,,0.0509,24.821,,.730,.368,,,CX
"   591 Irmgard (1906 TP)",2.678555539030988,.2074968258697212,12.49042805135,334.297526565155,217.4267205845126,2.122763766766298,3.234347311295678,4.38388533200306,39395,0,1133,,,10.64,51.86,,0.0364,7.35,,.693,.299,,,X
"   592 Bathseba (1906 TS)",3.02446379252335,.129147079855076,10.18278469928567,167.9319341981488,256.6640651611024,2.633863125591551,3.41506445945515,5.25993995907956,37977,0,1330,,,9.5,,,,7.7465,,,,,K,
"   593 Titania (1906 TT)",2.700861363488645,.2148590172104312,16.88436052478721,76.01295353866048,30.99304762007199,2.120556945307849,3.28116578166944,4.43875976351089,39162,0,880,,,9.28,75.32,,0.0604,9.899,,.657,.314,,,C
"   596 Scheila (1906 UA)",2.92625047128791,.1648782283388306,14.66229781677968,70.69906274904275,175.538868112722,2.443775477906291,3.408725464669528,5.00582251400252,39365,0,2855,,,8.90,113.34,,0.0379,15.851,,.714,.177,,T,PCD
"   597 Bandusia (1906 UB)",2.672398660754809,.1439811338322916,12.79977569666919,36.57119887058395,307.7127649055181,2.287623671527434,3.057173649982184,4.36877894439351,35547,0,1089,,,9.1,36.06,,0.2361,11.50,,,,,S,
"   598 Octavia (1906 UC)",2.762912382648065,.2469403426631587,12.22571424377616,91.85885574006335,291.2424996682395,2.080637852128667,3.445186913167462,4.59260264369183,38819,0,1133,,,9.53,72.33,,0.0521,10.8903,,.745,.377,,X,C:
"   599 Luisa (1906 UJ)",2.773247158446105,.2922264375900069,16.6594514413058,44.62820110922221,293.0024312395224,1.96283102077679,3.583663296115419,4.61839492509736,39355,0,1379,,,8.71,64.87,,0.1377,9.566,,.879,.446,,K,S
"   600 Musa (1906 UM)",2.659288073281671,.05523891167199961,10.19957653719034,139.3046634410598,114.614461364281,2.512391894291263,2.806184252272079,4.33666905432827,39345,0,1243,,,10.18,24.90,,0.2415,5.8856,,.840,.440,,S,
"   601 Nerthus (1906 UN)",3.139144322692045,.1015142000479551,16.08419245578062,169.7201048258651,157.555618760003,2.820476597938882,3.457812047445207,5.56192497873277,39333,0,1265,,,9.65,73.32,,0.0454,13.59,,.660,,,C,X
"   602 Marianna (1906 TE)",3.091446695151821,.2469166549771887,15.09555417791445,331.5099305787408,46.21328739901406,2.328117018144649,3.854776372158994,5.43564200410162,39465,0,1163,,,8.31,124.72,,0.0539,35.195,,.692,.333,,,C
"   604 Tekmessa (1906 TK)",3.147261132286815,.1994350019042007,4.421605920161683,12.18998818565429,28.88298278725341,2.519587102376177,3.774935162197452,5.58351091973986,37650,0,1349,,,9.4,65.16,,0.0870,5.5596,,,,,Xc,
